P/2015 TP200 (LINEAR),e,8.7800,7.0149,82.5038,7.269176,0.0502894,0.53547434,95.4256,01/07.0/2022,2000,g 11.0,4.0
# From MPC115881
C/2015 V1 (PANSTARRS),e,139.2272,197.1574,179.6424,2075,0.0000104,0.99794039,0.0000,12/16.5068/2017,2000,g  6.5,4.0
# From MPC112390
C/2015 V2 (Johnson),h,06/11.3049/2017,49.8190,69.9710,164.9874,1.001765,1.647315,2000,5.0,4.0
# From MPC115881
C/2015 VL62 (Lemmon-Yeung-PANSTARRS),h,08/27.9559/2017,165.8211,95.1572,128.9243,1.001598,2.722817,2000,8.0,4.0
# From MPC101098
P/2015 W2 (Catalina),e,11.6076,294.2140,117.4952,7.292499,0.0500483,0.63461517,114.5519,01/07.0/2022,2000,g 13.0,4.0
# From MPEC 2021-N06
P/2015 X1 (PANSTARRS),e,12.1524,161.7596,218.8361,3.635534,0.1421844,0.41926410,325.4635,01/07.0/2022,2000,g 16.0,4.0
# From MPEC 2021-P47
C/2015 XY1 (Lemmon),h,04/26.4716/2018,148.8522,281.6010,196.1670,1.001080,7.922725,2000,5.5,4.0
# From MPC 97498
P/2015 X3 (PANSTARRS),e,24.3973,77.2856,306.7000,5.006832,0.0879751,0.43957716,206.0264,01/07.0/2022,2000,g 15.0,4.0
# From MPC119995
C/2015 X5 (PANSTARRS),h,12/28.1599/2017,124.3107,122.3333,27.5868,1.000371,6.794722,2000,7.5,4.0
# From MPC115881
P/2015 X6 (PANSTARRS),e,4.5645,106.9422,329.8247,2.753291,0.2157377,0.17278887,96.4262,01/07.0/2022,2000,g 16.0,4.0
# From MPEC 2021-P47
C/2016 A1 (PANSTARRS),h,11/21.6093/2017,121.2072,128.1968,10.1534,1.000150,5.318528,2000,6.0,4.0
# From MPC100282
P/2016 A2 (Christensen),e,26.4038,291.6174,141.3534,4.752868,0.0951197,0.27060043,228.1396,01/07.0/2022,2000,g 11.5,4.0
# From MPC115881
P/2016 A3 (PANSTARRS),e,8.5102,187.2389,340.9959,7.885405,0.0445111,0.38630400,76.3587,01/07.0/2022,2000,g 10.0,4.0
# From MPC102098
P/2016 A7 (PANSTARRS),e,16.6072,221.4968,352.5886,5.033810,0.0872688,0.56455260,187.2673,01/07.0/2022,2000,g 16.0,4.0
# From MPC107048
C/2016 B1 (NEOWISE),e,50.4177,232.0594,8.6718,424.2006,0.0001128,0.99241068,0.0000,12/03.8645/2016,2000,g  9.5,4.0
# From MPC109143
P/2016 BA14 (PANSTARRS),e,18.8940,180.5241,351.8962,3.024929,0.1873403,0.66513490,38.1576,01/07.0/2022,2000,g 21.0,4.0
# From MPC110494
C/2016 E1 (PANSTARRS),h,06/04.0907/2017,131.8738,233.1174,47.4649,1.006321,8.175323,2000,6.5,4.0
# From MPEC 2021-P47
P/2016 G1 (PANSTARRS),e,10.9713,204.0226,111.1222,2.582390,0.2375042,0.21100569,69.1389,01/07.0/2022,2000,g 14.0,4.0
# From MPEC 2017-D91
P/2016 J1-A (PANSTARRS),e,14.3287,199.8112,46.9839,3.172211,0.1744460,0.22776840,352.2043,01/07.0/2022,2000,g 16.5,4.0
# From MPEC 2017-A77
P/2016 J1-B (PANSTARRS),e,14.3314,199.8160,46.8749,3.171840,0.1744766,0.22761890,352.3408,01/07.0/2022,2000,g 17.0,4.0
# From MPC119995
C/2016 M1 (PANSTARRS),e,90.9443,92.2336,209.9303,45683,0.0000001,0.99995154,0.0000,08/10.5360/2018,2000,g  5.0,4.0
# From MPEC 2021-N06
C/2016 N4 (MASTER),e,72.6480,353.9905,55.9494,4218,0.0000036,0.99924214,0.0000,09/17.1698/2017,2000,g  8.5,4.0
# From MPEC 2021-P47
C/2016 N6 (PANSTARRS),e,105.8448,298.9677,162.6486,1145,0.0000255,0.99767395,0.0000,07/17.8006/2018,2000,g  7.0,4.0
# From MPC102099
P/2016 P1 (PANSTARRS),e,24.4560,319.5655,270.1359,3.193763,0.1726832,0.28911519,36.3697,01/07.0/2022,2000,g 15.0,4.0
# From MPEC 2021-W31
C/2016 Q2 (PANSTARRS),h,05/12.0894/2021,109.3880,322.2976,84.5421,1.001645,7.081908,2000,6.0,4.0
# From MPC102955
C/2016 Q4 (Kowalski),e,7.2521,271.2960,99.5373,16.97943,0.0140870,0.58244359,20.2631,01/07.0/2022,2000,g  7.0,4.0
# From MPEC 2021-N06
C/2016 R2 (PANSTARRS),e,58.2705,80.5400,33.1197,482.8971,0.0000929,0.99461658,0.0000,05/08.9943/2018,2000,g  7.0,4.0
# From MPC109144
P/2016 R4 (Gibbs),e,10.8773,168.2624,174.0779,5.331954,0.0800524,0.47641049,159.6073,01/07.0/2022,2000,g 12.5,4.0
# From MPC105543
P/2016 S1 (PANSTARRS),e,94.7050,227.5985,273.2769,8.277775,0.0413841,0.71001339,72.7523,01/07.0/2022,2000,g 12.0,4.0
# From MPC105238
C/2016 T1 (Matheny),e,129.8511,56.4085,137.5344,126.3434,0.0006940,0.98175305,0.0000,02/01.7506/2017,2000,g 14.5,4.0
# From MPC107685
C/2016 T2 (Matheny),e,81.4098,339.1961,92.1562,99.50240,0.0009930,0.98091083,0.0000,12/30.0607/2016,2000,g 14.5,4.0
# From MPC110082
C/2016 T3 (PANSTARRS),e,22.6975,271.6939,194.5918,129.4404,0.0006693,0.97958621,0.0000,09/06.5507/2017,2000,g 10.5,4.0
# From MPC103847
C/2016 U1 (NEOWISE),h,01/13.3485/2017,46.1716,61.6769,162.7738,1.000391,0.325099,2000,17.0,4.0
# From MPC106345
C/2016 VZ18 (PANSTARRS),e,24.0055,98.9294,36.3501,157.8641,0.0004969,0.99421817,0.0000,03/04.9272/2017,2000,g 19.5,4.0
# From MPC106345
P/2016 WM48 (Lemmon),e,117.5127,59.9147,36.1063,8.165992,0.0422368,0.78360488,75.1275,01/07.0/2022,2000,g 15.0,4.0
# From MPEC 2021-P47
C/2016 X1 (Lemmon),e,26.4537,256.3785,224.4770,1259,0.0000221,0.99399352,0.0000,04/27.9468/2019,2000,g  6.0,4.0
# From MPC108594
C/2017 A1 (PANSTARRS),e,49.8069,121.0243,1.9513,75.17477,0.0015122,0.96958887,2.5662,01/07.0/2022,2000,g 13.0,4.0
# From MPC108594
C/2017 A3 (Elenin),e,98.5081,97.8614,303.9367,43.36142,0.0034518,0.91141520,6.2201,01/07.0/2022,2000,g  9.5,4.0
# From MPC114598
C/2017 AB5 (PANSTARRS),e,32.4534,42.6142,78.2982,2286,0.0000090,0.99597110,0.0000,02/14.5747/2018,2000,g  5.5,4.0
# From MPEC 2022-A21
C/2017 B3 (LINEAR),h,02/02.2224/2019,54.1614,2.1766,284.8152,1.001020,3.925743,2000,6.0,4.0
# From MPC103847
P/2017 B4 (PANSTARRS),e,20.0584,121.4578,11.0197,4.410520,0.1064068,0.36495152,359.9130,01/05.0/2017,2000,g 14.5,4.0
# From MPC104793
C/2017 C1 (NEOWISE),e,65.7713,357.5976,109.9811,20.54870,0.0105810,0.92726818,19.1962,01/07.0/2022,2000,g 18.0,4.0
# From MPC107685
C/2017 C2 (PANSTARRS),e,118.5850,249.7032,138.5204,95.02253,0.0010641,0.97451905,0.0000,01/21.0529/2017,2000,g 14.0,4.0
# From MPC104793
P/2017 D1 (Fuls),e,20.7595,82.1817,7.9815,4.829014,0.0928787,0.43643558,187.9920,01/07.0/2022,2000,g 14.0,4.0
# From MPC112391
C/2017 D2 (Barros),e,31.2581,330.9480,334.6172,10432,0.0000009,0.99976071,0.0000,07/14.7469/2017,2000,g 11.0,4.0
# From MPC114598
C/2017 D3 (ATLAS),h,04/27.4633/2017,125.5906,186.7116,340.8226,1.002125,4.967155,2000,8.0,4.0
# From MPC110495
P/2017 D4 (PANSTARRS),e,10.5374,264.9379,212.2025,7.555424,0.0474587,0.62846487,92.5594,01/07.0/2022,2000,g 13.0,4.0
# From MPC104794
C/2017 D5 (PANSTARRS),e,131.0257,92.6565,287.6124,113.0934,0.0008195,0.98094954,0.0000,01/09.7042/2017,2000,g 16.0,4.0
# From MPC106346
C/2017 E1 (Borisov),h,04/10.4850/2017,14.5720,142.5661,152.7760,1.003231,0.906125,2000,14.0,4.0
# From MPEC 2021-P47
C/2017 E3 (PANSTARRS),h,06/07.4238/2017,70.6576,220.7851,334.4744,1.006027,5.936945,2000,6.5,4.0
# From MPC105239
C/2017 E4 (Lovejoy),h,04/23.4168/2017,87.9898,222.8243,87.0815,1.001487,0.491644,2000,17.0,4.0
# From MPC111769
C/2017 F1 (Lemmon),h,11/29.0898/2017,146.4604,158.7886,64.7265,1.002265,4.497129,2000,10.5,4.0
# From MPC114598
C/2017 F2 (PANSTARRS),h,11/26.3289/2017,42.5443,38.6921,134.9622,1.002433,6.928749,2000,7.5,4.0
# From MPC104794
P/2017 G1 (PANSTARRS),e,4.7783,249.6446,224.4451,7.280680,0.0501702,0.65311791,104.4133,01/07.0/2022,2000,g 13.5,4.0
# From MPC108595
P/2017 G2 (PANSTARRS),e,47.9513,79.8029,105.4948,8.058257,0.0430866,0.64767829,72.0334,01/07.0/2022,2000,g 13.0,4.0
# From MPEC 2021-P47
C/2017 G3 (PANSTARRS),e,159.0375,279.4598,73.0428,313.3524,0.0001777,0.99175669,0.0000,04/16.3524/2017,2000,g 14.0,4.0
# From MPC115882
C/2017 K1 (PANSTARRS),h,03/17.9631/2018,154.0199,225.7038,4.4357,1.003275,7.287860,2000,7.0,4.0
# From MPEC 2022-A21
C/2017 K2 (PANSTARRS),h,12/19.6941/2022,87.5586,88.2370,236.1935,1.000691,1.797119,2000,1.5,4.0
# From MPEC 2021-N06
P/2017 K3 (Gasparovic),e,4.2730,354.2876,253.4459,5.583786,0.0746983,0.57973399,125.7196,01/07.0/2022,2000,g 14.5,4.0
# From MPC114598
C/2017 K4 (ATLAS),e,16.6738,298.8882,15.3089,28.64752,0.0064280,0.90727455,9.3817,01/07.0/2022,2000,g 10.0,4.0
# From MPEC 2021-P47
C/2017 K5 (PANSTARRS),h,03/27.1833/2020,82.2367,102.3736,172.0463,1.005612,7.682433,2000,5.0,4.0
# From MPC114599
C/2017 K6 (Jacques),e,57.2322,84.9664,303.7676,1146,0.0000254,0.99825850,0.0000,01/03.7823/2018,2000,g 11.0,4.0
# From MPEC 2021-P47
C/2017 M3 (PANSTARRS),e,77.5873,7.0365,110.2860,166.8464,0.0004573,0.97211576,0.0000,04/28.2924/2017,2000,g 10.5,4.0
# From MPEC 2021-Y10
C/2017 M4 (ATLAS),h,01/17.9584/2019,105.6475,65.9183,167.6168,1.001399,3.253557,2000,6.0,4.0
# From MPC118841
C/2017 M5 (TOTAS),h,06/04.4816/2018,15.8689,216.2885,92.8217,1.005462,5.999496,2000,6.5,4.0
# From MPC114599
C/2017 O1 (ASASSN),e,39.9593,25.7284,20.8361,366.4221,0.0001405,0.99592872,0.0000,10/15.4306/2017,2000,g 11.0,4.0
# From MPC114599
P/2017 P1 (PANSTARRS),e,7.6922,221.3839,122.5152,7.905451,0.0443419,0.31102839,57.4523,01/07.0/2022,2000,g 10.0,4.0
# From MPC114599
C/2017 P2 (PANSTARRS),e,50.0484,165.4578,132.4614,2487,0.0000079,0.99900619,0.0000,12/06.3467/2017,2000,g 10.0,4.0
# From MPC114599
P/2017 R1 (PANSTARRS),e,2.5745,143.6168,178.6968,4.135037,0.1172155,0.19565993,202.9590,01/07.0/2022,2000,g 13.5,4.0
# From MPC108595
C/2017 S2 (PANSTARRS),e,12.6717,62.3520,306.0569,20.61209,0.0105322,0.82473156,16.7522,01/07.0/2022,2000,g 13.0,4.0
# From MPC114599
C/2017 S3 (PANSTARRS),h,08/16.3271/2018,99.2030,171.3025,255.8086,1.000067,0.206737,2000,11.0,4.0
# From MPC109591
C/2017 S6 (Catalina),h,02/26.1661/2018,152.8669,131.0626,134.9120,1.000779,1.548474,2000,12.5,4.0
# From MPC114599
C/2017 S7 (Lemmon),e,124.2249,262.7466,187.5243,8446,0.0000013,0.99909937,0.0000,05/24.0560/2017,2000,g  7.0,4.0
# From MPC114599
P/2017 S8 (PANSTARRS),e,29.8520,191.5285,254.7828,2.780701,0.2125556,0.39123578,306.3855,01/07.0/2022,2000,g 16.0,4.0
# From MPC107050
P/2017 S9 (PANSTARRS),e,14.1440,146.2229,237.6867,3.153854,0.1759712,0.30540887,286.6951,01/07.0/2022,2000,g 17.0,4.0
# From MPC114600
C/2017 T1 (Heinze),e,96.8742,102.4290,96.9953,12061,0.0000007,0.99995151,0.0000,02/20.8267/2018,2000,g 14.5,4.0
# From MPEC 2021-Y10
C/2017 T2 (PANSTARRS),e,57.2341,64.3827,92.9829,2035,0.0000107,0.99920614,0.0000,05/04.8445/2020,2000,g  5.0,4.0
# From MPC114600
C/2017 T3 (ATLAS),e,88.1599,230.1539,246.8230,1180,0.0000243,0.99930080,0.0000,07/18.8814/2018,2000,g 10.0,4.0
